STARLINK-5205           
1 54202U 22141AX  26068.76479438 -.00000620  00000+0 -20864-4 0  9996
2 54202  53.2213 353.4688 0001611  95.7162 264.4014 15.08837111186019
LEMUR-2-STELLA          
1 60533U 24149BT  26068.72657350  .00013685  00000+0  85776-3 0  9992
2 60533  97.6764 150.9122 0001299  95.1117 265.0260 15.09464064 85488
